CSS (TIANHE)            
1 48274U 21035A   24074.57502055  .00040454  00000+0  43221-3 0  9993
2 48274  41.4671 301.3583 0008908 173.4010 186.6948 15.63089123164285
